CCSDS_OMM_VERS,COMMENT,CREATION_DATE,ORIGINATOR,OBJECT_NAME,OBJECT_ID,CENTER_NAME,REF_FRAME,TIME_SYSTEM,MEAN_ELEMENT_THEORY,EPOCH,MEAN_MOTION,ECCENTRICITY,INCLINATION,RA_OF_ASC_NODE,ARG_OF_PERICENTER,MEAN_ANOMALY,EPHEMERIS_TYPE,CLASSIFICATION_TYPE,NORAD_CAT_ID,ELEMENT_SET_NO,REV_AT_EPOCH,BSTAR,MEAN_MOTION_DOT,MEAN_MOTION_DDOT,SEMIMAJOR_AXIS,PERIOD,APOAPSIS,PERIAPSIS,OBJECT_TYPE,RCS_SIZE,COUNTRY_CODE,LAUNCH_DATE,SITE,DECAY_DATE,FILE,GP_ID,TLE_LINE0,TLE_LINE1,TLE_LINE2
2,GENERATED VIA SPACE-TRACK.ORG API,2011-01-26T16:23:35,18 SPCS,SKYNET 4D,1998-002A,EARTH,TEME,UTC,SGP4,2011-01-26T04:01:01.834175,0.99152254,0.0004263,6.8299,52.3462,339.69,20.3445,0,U,25134,999,4770,0.0001,6.6e-07,0,42481.553,1452.311,36121.528,36085.308,PAYLOAD,LARGE,UK,1998-01-10,AFETR,,1030984,81472714,0 SKYNET 4D,1 25134U 98002A   11026.16738234  .00000066  00000-0  10000-3 0  9994,2 25134 006.8299 052.3462 0004263 339.6900 020.3445 00.99152254 47701
2,GENERATED VIA SPACE-TRACK.ORG API,2011-01-28T08:08:47,18 SPCS,SKYNET 4D,1998-002A,EARTH,TEME,UTC,SGP4,2011-01-27T04:13:15.220704,0.99152596,0.0004253,6.8321,52.3374,339.999,20.0283,0,U,25134,999,4771,0.0001,5.8e-07,0,42481.455,1452.306,36121.388,36085.253,PAYLOAD,LARGE,UK,1998-01-10,AFETR,,1031770,81497022,0 SKYNET 4D,1 25134U 98002A   11027.17587061 +.00000058 +00000-0 +10000-3 0  9997,2 25134 006.8321 052.3374 0004253 339.9990 020.0283 00.99152596047717
2,GENERATED VIA SPACE-TRACK.ORG API,2011-01-28T08:22:59,18 SPCS,SKYNET 4D,1998-002A,EARTH,TEME,UTC,SGP4,2011-01-28T04:25:29.956800,0.99152972,0.0004376,6.8343,52.3286,338.1429,21.8828,0,U,25134,999,4772,0.0001,4.8e-07,0,42481.348,1452.301,36121.803,36084.623,PAYLOAD,LARGE,UK,1998-01-10,AFETR,,1031788,81500523,0 SKYNET 4D,1 25134U 98002A   11028.18437450  .00000048  00000-0  10000-3 0  9994,2 25134 006.8343 052.3286 0004376 338.1429 021.8828 00.99152972 47720
2,GENERATED VIA SPACE-TRACK.ORG API,2011-01-30T09:38:27,18 SPCS,SKYNET 4D,1998-002A,EARTH,TEME,UTC,SGP4,2011-01-29T04:37:45.819551,0.99153369,0.000438,6.8364,52.3199,339.1674,20.8637,0,U,25134,999,4773,0.0001,3.4e-07,0,42481.235,1452.295,36121.706,36084.493,PAYLOAD,LARGE,UK,1998-01-10,AFETR,,1032711,81528401,0 SKYNET 4D,1 25134U 98002A   11029.19289143 +.00000034 +00000-0 +10000-3 0  9995,2 25134 006.8364 052.3199 0004380 339.1674 020.8637 00.99153369047733
2,GENERATED VIA SPACE-TRACK.ORG API,2011-01-30T08:26:08,18 SPCS,SKYNET 4D,1998-002A,EARTH,TEME,UTC,SGP4,2011-01-30T04:50:03.330815,0.99153788,0.0004366,6.8386,52.3108,339.3852,20.6605,0,U,25134,999,4774,0.0001,1.8e-07,0,42481.115,1452.289,36121.527,36084.433,PAYLOAD,LARGE,UK,1998-01-10,AFETR,,1032631,81522613,0 SKYNET 4D,1 25134U 98002A   11030.20142744  .00000018  00000-0  10000-3 0  9996,2 25134 006.8386 052.3108 0004366 339.3852 020.6605 00.99153788 47740
2,GENERATED VIA SPACE-TRACK.ORG API,2011-02-02T08:16:19,18 SPCS,SKYNET 4D,1998-002A,EARTH,TEME,UTC,SGP4,2011-02-02T05:26:55.399775,0.99155086,0.0004357,6.845,52.2844,339.7965,20.3001,0,U,25134,999,4777,0.0001,-4.1e-07,0,42480.744,1452.27,36121.118,36084.1,PAYLOAD,LARGE,UK,1998-01-10,AFETR,,1033775,81570183,0 SKYNET 4D,1 25134U 98002A   11033.22703009 -.00000041  00000-0  10000-3 0  9995,2 25134 006.8450 052.2844 0004357 339.7965 020.3001 00.99155086 47770
2,GENERATED VIA SPACE-TRACK.ORG API,2011-02-04T08:08:27,18 SPCS,SKYNET 4D,1998-002A,EARTH,TEME,UTC,SGP4,2011-02-03T05:39:11.307455,0.99155502,0.0004321,6.8472,52.2762,340.0008,20.1093,0,U,25134,999,4778,0.0001,-6.3e-07,0,42480.625,1452.264,36120.846,36084.135,PAYLOAD,LARGE,UK,1998-01-10,AFETR,,1034723,81597332,0 SKYNET 4D,1 25134U 98002A   11034.23554754 -.00000063 +00000-0 +10000-3 0  9992,2 25134 006.8472 052.2762 0004321 340.0008 020.1093 00.99155502047780
2,GENERATED VIA SPACE-TRACK.ORG API,2011-02-05T08:18:12,18 SPCS,SKYNET 4D,1998-002A,EARTH,TEME,UTC,SGP4,2011-02-05T06:03:38.110752,0.9915626,0.0004299,6.8516,52.2595,339.9575,20.1632,0,U,25134,999,4780,0.0001,-1.1e-06,0,42480.409,1452.253,36120.536,36084.012,PAYLOAD,LARGE,UK,1998-01-10,AFETR,,1035209,81615165,0 SKYNET 4D,1 25134U 98002A   11036.25252443 -.00000110  00000-0  10000-3 0  9999,2 25134 006.8516 052.2595 0004299 339.9575 020.1632 00.99156260 47807
2,GENERATED VIA SPACE-TRACK.ORG API,2011-02-08T08:03:15,18 SPCS,SKYNET 4D,1998-002A,EARTH,TEME,UTC,SGP4,2011-02-08T06:40:08.882976,0.99157096,0.0004335,6.8582,52.2362,340.0937,20.0126,0,U,25134,999,4783,0.0001,-1.84e-06,0,42480.17,1452.24,36120.45,36083.62,PAYLOAD,LARGE,UK,1998-01-10,AFETR,,1036532,81652389,0 SKYNET 4D,1 25134U 98002A   11039.27788059 -.00000184  00000-0  10000-3 0  9992,2 25134 006.8582 052.2362 0004335 340.0937 020.0126 00.99157096 47836
2,GENERATED VIA SPACE-TRACK.ORG API,2011-02-10T09:48:07,18 SPCS,SKYNET 4D,1998-002A,EARTH,TEME,UTC,SGP4,2011-02-09T06:52:18.488639,0.99157263,0.000441,6.8605,52.2284,339.7579,20.3419,0,U,25134,999,4784,0.0001,-2.08e-06,0,42480.122,1452.238,36120.721,36083.254,PAYLOAD,LARGE,UK,1998-01-10,AFETR,,1037518,81680073,0 SKYNET 4D,1 25134U 98002A   11040.28632510 -.00000208 +00000-0 +10000-3 0  9992,2 25134 006.8605 052.2284 0004410 339.7579 020.3419 00.99157263047841
2,GENERATED VIA SPACE-TRACK.ORG API,2011-02-10T06:04:11,18 SPCS,SKYNET 4D,1998-002A,EARTH,TEME,UTC,SGP4,2011-02-10T07:04:28.130592,0.99157365,0.0004421,6.8626,52.2194,339.7318,20.364,0,U,25134,999,4785,0.0001,-2.3e-06,0,42480.093,1452.237,36120.739,36083.178,PAYLOAD,LARGE,UK,1998-01-10,AFETR,,1037437,81674223,0 SKYNET 4D,1 25134U 98002A   11041.29477003 -.00000230  00000-0  10000-3 0  9993,2 25134 006.8626 052.2194 0004421 339.7318 020.3640 00.99157365 47857
2,GENERATED VIA SPACE-TRACK.ORG API,2011-02-12T08:36:41,18 SPCS,SKYNET 4D,1998-002A,EARTH,TEME,UTC,SGP4,2011-02-11T07:16:38.291807,0.99157397,0.0004513,6.8648,52.2099,339.0008,21.0928,0,U,25134,999,4786,0.0001,-2.51e-06,0,42480.084,1452.236,36121.12,36082.778,PAYLOAD,LARGE,UK,1998-01-10,AFETR,,1038514,81710492,0 SKYNET 4D,1 25134U 98002A   11042.30322097 -.00000251 +00000-0 +10000-3 0  9991,2 25134 006.8648 052.2099 0004513 339.0008 021.0928 00.99157397047869
2,GENERATED VIA SPACE-TRACK.ORG API,2011-02-13T08:24:48,18 SPCS,SKYNET 4D,1998-002A,EARTH,TEME,UTC,SGP4,2011-02-12T07:28:49.558080,0.99157352,0.0004592,6.8669,52.2015,339.1202,20.974,0,U,25134,999,4787,0.0001,-2.68e-06,0,42480.097,1452.237,36121.469,36082.455,PAYLOAD,LARGE,UK,1998-01-10,AFETR,,1038950,81720719,0 SKYNET 4D,1 25134U 98002A   11043.31168470 -.00000268  00000-0  10000-3 0  9994,2 25134 006.8669 052.2015 0004592 339.1202 020.9740 00.99157352 47876
2,GENERATED VIA SPACE-TRACK.ORG API,2011-02-14T16:10:51,18 SPCS,SKYNET 4D,1998-002A,EARTH,TEME,UTC,SGP4,2011-02-14T07:53:16.846079,0.99157062,0.0004719,6.8711,52.1841,338.4438,21.673,0,U,25134,999,4789,0.0001,-2.94e-06,0,42480.18,1452.241,36122.091,36081.998,PAYLOAD,LARGE,UK,1998-01-10,AFETR,,1039584,81746044,0 SKYNET 4D,1 25134U 98002A   11045.32866720 -.00000294  00000-0  10000-3 0  9999,2 25134 006.8711 052.1841 0004719 338.4438 021.6730 00.99157062 47891
2,GENERATED VIA SPACE-TRACK.ORG API,2011-02-19T18:29:19,18 SPCS,SKYNET 4D,1998-002A,EARTH,TEME,UTC,SGP4,2011-02-19T08:54:24.169247,0.99155244,0.000489,6.8816,52.1402,338.5006,21.6511,0,U,25134,999,4794,0.0001,-2.85e-06,0,42480.699,1452.268,36123.337,36081.791,PAYLOAD,LARGE,UK,1998-01-10,AFETR,,1042376,81821711,0 SKYNET 4D,1 25134U 98002A   11050.37111307 -.00000285  00000-0  10000-3 0  9994,2 25134 006.8816 052.1402 0004890 338.5006 021.6511 00.99155244 47945
2,GENERATED VIA SPACE-TRACK.ORG API,2011-02-21T08:56:32,18 SPCS,SKYNET 4D,1998-002A,EARTH,TEME,UTC,SGP4,2011-02-20T09:06:34.764191,0.99154753,0.0004906,6.8837,52.1314,338.4973,21.6454,0,U,25134,999,4795,0.0001,-2.7e-06,0,42480.839,1452.275,36123.545,36081.863,PAYLOAD,LARGE,UK,1998-01-10,AFETR,,1043114,81847050,0 SKYNET 4D,1 25134U 98002A   11051.37956903 -.00000270 +00000-0 +10000-3 0  9998,2 25134 006.8837 052.1314 0004906 338.4973 021.6454 00.99154753047951
2,GENERATED VIA SPACE-TRACK.ORG API,2011-02-22T15:58:57,18 SPCS,SKYNET 4D,1998-002A,EARTH,TEME,UTC,SGP4,2011-02-22T09:30:54.080064,0.99153711,0.0004921,6.8879,52.1142,338.3033,21.8073,0,U,25134,999,4797,0.0001,-2.31e-06,0,42481.137,1452.29,36123.907,36082.097,PAYLOAD,LARGE,UK,1998-01-10,AFETR,,1043807,81866474,0 SKYNET 4D,1 25134U 98002A   11053.39645926 -.00000231  00000-0  10000-3 0  9999,2 25134 006.8879 052.1142 0004921 338.3033 021.8073 00.99153711 47973
2,GENERATED VIA SPACE-TRACK.ORG API,2011-02-24T08:53:06,18 SPCS,SKYNET 4D,1998-002A,EARTH,TEME,UTC,SGP4,2011-02-23T09:43:05.444831,0.99153179,0.0004968,6.8901,52.1059,338.0917,22.0054,0,U,25134,999,4798,0.0001,-2.08e-06,0,42481.289,1452.298,36124.259,36082.049,PAYLOAD,LARGE,UK,1998-01-10,AFETR,,1044617,81891457,0 SKYNET 4D,1 25134U 98002A   11054.40492413 -.00000208 +00000-0 +10000-3 0  9997,2 25134 006.8901 052.1059 0004968 338.0917 022.0054 00.99153179047986
2,GENERATED VIA SPACE-TRACK.ORG API,2011-02-26T16:04:45,18 SPCS,SKYNET 4D,1998-002A,EARTH,TEME,UTC,SGP4,2011-02-26T10:19:51.479615,0.99151745,0.0005345,6.8969,52.0818,338.0033,22.094,0,U,25134,999,4801,0.0001,-1.27e-06,0,42481.699,1452.319,36126.27,36080.857,PAYLOAD,LARGE,UK,1998-01-10,AFETR,,1046306,81926642,0 SKYNET 4D,1 25134U 98002A   11057.43045694 -.00000127  00000-0  10000-3 0  9998,2 25134 006.8969 052.0818 0005345 338.0033 022.0940 00.99151745 48017
2,GENERATED VIA SPACE-TRACK.ORG API,2011-03-02T17:18:16,18 SPCS,SKYNET 4D,1998-002A,EARTH,TEME,UTC,SGP4,2011-03-02T11:09:07.665983,0.99150487,0.0005239,6.9054,52.0463,338.044,22.1002,0,U,25134,999,4805,0.0001,-1.1e-07,0,42482.058,1452.337,36126.179,36081.667,PAYLOAD,LARGE,UK,1998-01-10,AFETR,,1048396,81985483,0 SKYNET 4D,1 25134U 98002A   11061.46467206 -.00000011  00000-0  10000-3 0  9995,2 25134 006.9054 052.0463 0005239 338.0440 022.1002 00.99150487 48059
